NORAD_CAT_ID,OBJECT_NAME,OBJECT_TYPE,EPOCH,MEAN_MOTION,ECCENTRICITY,INCLINATION,RA_OF_ASC_NODE,ARG_OF_PERICENTER,MEAN_ANOMALY,BSTAR,MEAN_MOTION_DOT,MEAN_MOTION_DDOT,TLE_LINE0,TLE_LINE1,TLE_LINE2,SEMIMAJOR_AXIS,PERIOD,APOGEE,PERIGEE,DECAYED
53166.0,STARLINK-4110,PAYLOAD,2023-09-24 01:47:40,15.08843345,0.0001256,53.2161,233.6724,84.3733,275.7402,0.00011776,1.587e-05,0.0,0 STARLINK-4110,1 53166U 22083AL  23267.07477603  .00001587  00000-0  11776-3 0  9996,2 53166  53.2161 233.6724 0001256  84.3733 275.7402 15.08843345 66482,6917.87,95.437,540.604,538.866,0.0
53166.0,STARLINK-4110,PAYLOAD,2023-09-24 03:23:03,15.08845154,0.0001321,53.2156,233.3749,87.872,272.2424,0.0001262,1.721e-05,0.0,0 STARLINK-4110,1 53166U 22083AL  23267.14101524  .00001721  00000-0  12620-3 0  9999,2 53166  53.2156 233.3749 0001321  87.8720 272.2424 15.08845154 65864,6917.865,95.437,540.643,538.816,0.0
53166.0,STARLINK-4110,PAYLOAD,2023-09-25 03:13:50,15.08842107,0.000132,53.2153,228.9117,88.5325,271.5819,6.7344e-05,7.84e-06,0.0,0 STARLINK-4110,1 53166U 22083AL  23268.13461676  .00000784  00000-0  67344-4 0  9998,2 53166  53.2153 228.9117 0001320  88.5325 271.5819 15.08842107 66640,6917.874,95.437,540.652,538.826,0.0
53166.0,STARLINK-4110,PAYLOAD,2023-09-25 06:24:36,15.08849897,0.0001274,53.2154,228.3189,86.6949,273.4189,0.0001813,2.599e-05,0.0,0 STARLINK-4110,1 53166U 22083AL  23268.26709337  .00002599  00000-0  18130-3 0  9995,2 53166  53.2154 228.3189 0001274  86.6949 273.4189 15.08849897 66030,6917.85,95.437,540.596,538.834,0.0
53166.0,STARLINK-4110,PAYLOAD,2023-09-25 14:21:32,15.08852324,0.0001238,53.2151,226.8319,83.3396,276.7737,0.0002739,4.075e-05,0.0,0 STARLINK-4110,1 53166U 22083AL  23268.59829143  .00004075  00000-0  27390-3 0  9998,2 53166  53.2151 226.8319 0001238  83.3396 276.7737 15.08852324 66714,6917.843,95.437,540.564,538.851,0.0
53166.0,STARLINK-4110,PAYLOAD,2023-09-26 04:39:59,15.08861895,0.0001345,53.2157,224.1568,84.6674,275.4471,0.00041792,6.373e-05,0.0,0 STARLINK-4110,1 53166U 22083AL  23269.19444442  .00006373  00000-0  41792-3 0  9995,2 53166  53.2157 224.1568 0001345  84.6674 275.4471 15.08861895 66173,6917.813,95.436,540.609,538.748,0.0
53166.0,STARLINK-4110,PAYLOAD,2023-09-27 02:55:24,15.08837117,0.000148,53.2147,219.9921,89.2171,270.8991,6.1571e-06,-1.9e-06,0.0,0 STARLINK-4110,1 53166U 22083AL  23270.12181384 -.00000190  00000-0  61571-5 0  9994,2 53166  53.2147 219.9921 0001480  89.2171 270.8991 15.08837117 66941,6917.889,95.438,540.778,538.73,0.0
53166.0,STARLINK-4110,PAYLOAD,2023-09-27 06:06:11,15.08841353,0.0001603,53.2148,219.3976,88.8751,271.2425,0.00021558,3.145e-05,0.0,0 STARLINK-4110,1 53166U 22083AL  23270.25429401  .00003145  00000-0  21558-3 0  9994,2 53166  53.2148 219.3976 0001603  88.8751 271.2425 15.08841353 66339,6917.876,95.437,540.85,538.632,0.0
53166.0,STARLINK-4110,PAYLOAD,2023-09-27 14:03:07,15.08815731,0.0001945,53.2146,217.9104,82.9039,277.2174,-2.325e-05,-6.58e-06,0.0,0 STARLINK-4110,1 53166U 22083AL  23270.58550391 -.00000658  00000-0 -23250-4 0  9993,2 53166  53.2146 217.9104 0001945  82.9039 277.2174 15.08815731 67011,6917.955,95.439,541.165,538.474,0.0
53166.0,STARLINK-4110,PAYLOAD,2023-09-28 02:46:13,15.0881617,0.0001879,53.216,215.5276,92.5046,267.6161,0.00028526,4.252e-05,0.0,0 STARLINK-4110,1 53166U 22083AL  23271.11543016  .00004252  00000-0  28526-3 0  9991,2 53166  53.2160 215.5276 0001879  92.5046 267.6161 15.08816170 66467,6917.953,95.439,541.118,538.518,0.0
53166.0,STARLINK-4110,PAYLOAD,2023-09-30 02:27:46,15.08871703,0.0001554,53.2159,206.6113,91.5761,268.5409,0.00075402,0.00011743,0.0,0 STARLINK-4110,1 53166U 22083AL  23273.10261804  .00011743  00000-0  75402-3 0  9992,2 53166  53.2159 206.6113 0001554  91.5761 268.5409 15.08871703 67390,6917.783,95.436,540.724,538.573,0.0
53166.0,STARLINK-4110,PAYLOAD,2023-09-30 04:03:09,15.0887483,0.0001533,53.2159,206.3138,91.4336,268.6832,0.00079939,0.00012469,0.0,0 STARLINK-4110,1 53166U 22083AL  23273.16885602  .00012469  00000-0  79939-3 0  9991,2 53166  53.2159 206.3138 0001533  91.4336 268.6832 15.08874830 66774,6917.774,95.435,540.699,538.578,0.0
53166.0,STARLINK-4110,PAYLOAD,2023-09-30 18:21:37,15.08831976,0.0001557,53.2162,203.637,87.0314,273.0856,-0.00046576,-7.691e-05,0.0,0 STARLINK-4110,1 53166U 22083AL  23273.76502177 -.00007691  00000-0 -46576-3 0  9994,2 53166  53.2162 203.6370 0001557  87.0314 273.0856 15.08831976 67499,6917.905,95.438,540.847,538.693,0.0
53166.0,STARLINK-4110,PAYLOAD,2023-10-01 11:50:53,15.08824891,0.0001649,53.2162,200.3665,88.6077,271.5104,0.0012766,0.00020079,0.0,0 STARLINK-4110,1 53166U 22083AL  23274.49366959  .00020079  00000-0  12766-2 0  9997,2 53166  53.2162 200.3665 0001649  88.6077 271.5104 15.08824891 66974,6917.927,95.439,540.932,538.651,0.0
53166.0,STARLINK-4110,PAYLOAD,2023-10-01 18:12:25,15.08848846,0.0001579,53.2159,199.1772,88.9017,271.2156,0.0013886,0.00021886,0.0,0 STARLINK-4110,1 53166U 22083AL  23274.75862842  .00021886  00000-0  13886-2 0  9999,2 53166  53.2159 199.1772 0001579  88.9017 271.2156 15.08848846 67648,6917.853,95.437,540.811,538.626,0.0
53166.0,STARLINK-4110,PAYLOAD,2023-10-01 21:23:11,15.08857014,0.0001506,53.216,198.5823,86.0234,274.0931,0.0016275,0.00025721,0.0,0 STARLINK-4110,1 53166U 22083AL  23274.89110683  .00025721  00000-0  16275-2 0  9990,2 53166  53.2160 198.5823 0001506  86.0234 274.0931 15.08857014 67032,6917.828,95.436,540.735,538.652,0.0
53166.0,STARLINK-4110,PAYLOAD,2023-10-02 06:55:29,15.08882862,0.0001509,53.2157,196.7985,90.5893,269.5272,0.0021393,0.00033963,0.0,0 STARLINK-4110,1 53166U 22083AL  23275.28853910  .00033963  00000-0  21393-2 0  9995,2 53166  53.2157 196.7985 0001509  90.5893 269.5272 15.08882862 67723,6917.749,95.435,540.658,538.57,0.0
53166.0,STARLINK-4110,PAYLOAD,2023-10-02 19:38:35,15.0884257,0.0001281,53.2152,194.4198,107.4762,252.637,0.00083561,0.00013037,0.0,0 STARLINK-4110,1 53166U 22083AL  23275.81846561  .00013037  00000-0  83561-3 0  9994,2 53166  53.2152 194.4198 0001281 107.4762 252.6370 15.08842570 67802,6917.873,95.437,540.624,538.851,0.0
53166.0,STARLINK-4110,PAYLOAD,2023-10-03 11:32:26,15.08849736,0.0001462,53.2149,191.4461,87.2501,272.8658,0.0012539,0.00019729,0.0,0 STARLINK-4110,1 53166U 22083AL  23276.48086701  .00019729  00000-0  12539-2 0  9990,2 53166  53.2149 191.4461 0001462  87.2501 272.8658 15.08849736 67900,6917.851,95.437,540.727,538.704,0.0
53166.0,STARLINK-4110,PAYLOAD,2023-10-03 22:40:09,15.0884287,9.73e-05,53.2146,189.3651,103.1535,256.9566,0.0017261,0.00027292,0.0,0 STARLINK-4110,1 53166U 22083AL  23276.94454941  .00027292  00000-0  17261-2 0  9997,2 53166  53.2146 189.3651 0000973 103.1535 256.9566 15.08842870 67346,6917.872,95.437,540.41,539.064,0.0
53166.0,STARLINK-4110,PAYLOAD,2023-10-04 03:26:18,15.0885748,0.0001025,53.2145,188.4725,97.1552,262.9557,0.0025479,0.00040515,0.0,0 STARLINK-4110,1 53166U 22083AL  23277.14326822  .00040515  00000-0  25479-2 0  9999,2 53166  53.2145 188.4725 0001025  97.1552 262.9557 15.08857480 68001,6917.827,95.436,540.401,538.983,0.0
53166.0,STARLINK-4110,PAYLOAD,2023-10-04 17:44:46,15.08865311,0.0001559,53.2146,185.7973,83.5835,276.5334,0.002195,0.00034843,0.0,0 STARLINK-4110,1 53166U 22083AL  23277.73943076  .00034843  00000-0  21950-2 0  9997,2 53166  53.2146 185.7973 0001559  83.5835 276.5334 15.08865311 68097,6917.803,95.436,540.747,538.59,0.0
53166.0,STARLINK-4110,PAYLOAD,2023-10-05 01:41:42,15.08873696,0.0001175,53.2142,184.3089,82.6651,277.4475,0.002112,0.00033516,0.0,0 STARLINK-4110,1 53166U 22083AL  23278.07062602  .00033516  00000-0  21120-2 0  9997,2 53166  53.2142 184.3089 0001175  82.6651 277.4475 15.08873696 68143,6917.777,95.435,540.455,538.83,0.0
53166.0,STARLINK-4110,PAYLOAD,2023-10-05 11:14:00,15.0885927,0.0001279,53.2148,182.5247,86.5306,273.5832,0.00082664,0.00012899,0.0,0 STARLINK-4110,1 53166U 22083AL  23278.46806489  .00012899  00000-0  82664-3 0  9991,2 53166  53.2148 182.5247 0001279  86.5306 273.5832 15.08859270 67572,6917.821,95.436,540.571,538.802,0.0
53166.0,STARLINK-4110,PAYLOAD,2023-10-05 22:21:43,15.08838021,0.0001434,53.216,180.444,91.1726,268.943,0.0010396,0.00016295,0.0,0 STARLINK-4110,1 53166U 22083AL  23278.93175025  .00016295  00000-0  10396-2 0  9994,2 53166  53.2160 180.4440 0001434  91.1726 268.9430 15.08838021 67640,6917.886,95.438,540.743,538.759,0.0
53166.0,STARLINK-4110,PAYLOAD,2023-10-06 01:32:29,15.08851352,0.0001685,53.2156,179.8497,89.2152,270.9033,0.0021317,0.00033812,0.0,0 STARLINK-4110,1 53166U 22083AL  23279.06423097  .00033812  00000-0  21317-2 0  9993,2 53166  53.2156 179.8497 0001685  89.2152 270.9033 15.08851352 68294,6917.846,95.437,540.876,538.545,0.0
53166.0,STARLINK-4110,PAYLOAD,2023-10-06 11:04:48,15.08838185,0.0001969,53.2155,178.0642,79.1721,280.9492,0.0012545,0.00019733,0.0,0 STARLINK-4110,1 53166U 22083AL  23279.46167673  .00019733  00000-0  12545-2 0  9991,2 53166  53.2155 178.0642 0001969  79.1721 280.9492 15.08838185 67727,6917.886,95.438,541.113,538.389,0.0
53166.0,STARLINK-4110,PAYLOAD,2023-10-06 22:12:31,15.08829816,0.0001778,53.216,175.9819,93.4141,266.7055,0.0010735,0.00016833,0.0,0 STARLINK-4110,1 53166U 22083AL  23279.92536093  .00016833  00000-0  10735-2 0  9995,2 53166  53.2160 175.9819 0001778  93.4141 266.7055 15.08829816 67793,6917.912,95.438,541.007,538.547,0.0
53166.0,STARLINK-4110,PAYLOAD,2023-10-06 23:47:54,15.08840014,0.0001665,53.216,175.6845,91.094,269.0243,0.00070016,0.00010873,0.0,0 STARLINK-4110,1 53166U 22083AL  23279.99159955  .00010873  00000-0  70016-3 0  9997,2 53166  53.2160 175.6845 0001665  91.0940 269.0243 15.08840014 68435,6917.88,95.438,540.897,538.594,0.0
53166.0,STARLINK-4110,PAYLOAD,2023-10-07 22:03:17,15.0885466,0.0001756,53.2165,171.521,88.1819,271.9374,0.00078867,0.00012291,0.0,0 STARLINK-4110,1 53166U 22083AL  23280.91895794  .00012291  00000-0  78867-3 0  9997,2 53166  53.2165 171.5210 0001756  88.1819 271.9374 15.08854660 67948,6917.836,95.437,540.915,538.486,0.0
